{
    "links": {
        "self": "http://www.neowsapp.com/rest/v1/neo/3465252?api_key=iIulBulltgU6a56xZRHN4H3l9WmuAYTsLGpBGhQ2"
    },
    "id": "3465252",
    "neo_reference_id": "3465252",
    "name": "(2009 OW6)",
    "designation": "2009 OW6",
    "nasa_jpl_url": "http://ssd.jpl.nasa.gov/sbdb.cgi?sstr=3465252",
    "absolute_magnitude_h": 25.4,
    "estimated_diameter": {
        "kilometers": {
            "estimated_diameter_min": 0.022108281,
            "estimated_diameter_max": 0.0494356193
        },
        "meters": {
            "estimated_diameter_min": 22.1082810359,
            "estimated_diameter_max": 49.435619262
        },
        "miles": {
            "estimated_diameter_min": 0.0137374447,
            "estimated_diameter_max": 0.0307178602
        },
        "feet": {
            "estimated_diameter_min": 72.5337327539,
            "estimated_diameter_max": 162.1903570994
        }
    },
    "is_potentially_hazardous_asteroid": false,
    "close_approach_data": [
        {
            "close_approach_date": "2009-07-28",
            "close_approach_date_full": "2009-Jul-28 16:25",
            "epoch_date_close_approach": 1248798300000,
            "relative_velocity": {
                "kilometers_per_second": "7.278438063",
                "kilometers_per_hour": "26202.3770266917",
                "miles_per_hour": "16281.1381030574"
            },
            "miss_distance": {
                "astronomical": "0.0184594005",
                "lunar": "7.1807067945",
                "kilometers": "2761486.996276935",
                "miles": "1715908.451754303"
            },
            "orbiting_body": "Earth"
        }
    ],
    "orbital_data": {
        "orbit_id": "11",
        "orbit_determination_date": "2017-04-06 09:00:19",
        "first_observation_date": "2009-07-27",
        "last_observation_date": "2009-08-09",
        "data_arc_in_days": 13,
        "observations_used": 54,
        "orbit_uncertainty": "7",
        "minimum_orbit_intersection": ".00163985",
        "jupiter_tisserand_invariant": "3.735",
        "epoch_osculation": "2459000.5",
        "eccentricity": ".4823007292465671",
        "semi_major_axis": "1.955451926613647",
        "inclination": ".1182148164376288",
        "ascending_node_longitude": "95.8726871809947",
        "orbital_period": "998.778401664744",
        "perihelion_distance": "1.012336036401281",
        "perihelion_argument": "229.7353868915889",
        "aphelion_distance": "2.898567816826014",
        "perihelion_time": "2459052.629448928047",
        "mean_anomaly": "341.2104450969134",
        "mean_motion": ".3604403132866701",
        "equinox": "J2000",
        "orbit_class": {
            "orbit_class_type": "APO",
            "orbit_class_description": "Near-Earth asteroid orbits which cross the Earth’s orbit similar to that of 1862 Apollo",
            "orbit_class_range": "a (semi-major axis) > 1.0 AU; q (perihelion) < 1.017 AU"
        }
    },
    "is_sentry_object": false
}